STARLINK-3448           
1 51728U 22016Q   23050.64869091  .00005202  00000+0  34460-3 0  9995
2 51728  53.2121 280.2511 0001021 102.0757 258.0349 15.08847405 56514
STARLINK-3523           
1 51729U 22016R   23051.32214528  .00010410  00000+0  67104-3 0  9999
2 51729  53.2157 277.2360 0003094  21.0577 339.0542 15.08845787 56611
STARLINK-3530           
1 51730U 22016S   23050.97252277  .00004304  00000+0  28823-3 0  9994
2 51730  53.2150 278.7929 0001280  85.3404 274.7734 15.08857240 56491
STARLINK-3514           
1 51731U 22016T   23050.91732695  .00004055  00000+0  27264-3 0  9997
2 51731  53.2144 279.0443 0001330  84.7600 275.3543 15.08851926 56532
STARLINK-3518           
1 51732U 22016U   23050.90260150  .00002828  00000+0  19564-3 0  9999
2 51732  53.2135 279.1097 0001341  64.1357 295.9773 15.08854674 56561
STARLINK-3525           
1 51733U 22016V   23050.64500670  .00004467  00000+0  29846-3 0  9990
2 51733  53.2133 280.2660 0001413  56.1775 303.9351 15.08853434 56446
STARLINK-3450           
1 51734U 22016W   23051.35524640  .00004783  00000+0  31833-3 0  9993
2 51734  53.2130 277.0789 0001236  80.5460 279.5672 15.08847987 56591
STARLINK-3517           
1 51735U 22016X   23051.36260441  .00001856  00000+0  13465-3 0  9990
2 51735  53.2145 277.0420 0000901  98.3010 261.8084 15.08846917 56601
STARLINK-3447           
1 51736U 22016Y   23050.95044694  .00004955  00000+0  32901-3 0  9994
2 51736  53.2150 278.8916 0001207  83.2975 276.8154 15.08857447 56558
STARLINK-3509           
1 51737U 22016Z   23050.89524239  .00010712  00000+0  68959-3 0  9996
2 51737  53.2140 279.1420 0001581 100.9216 259.1954 15.08867939 56472
STARLINK-3515           
1 51738U 22016AA  23051.34052849  .00001238  00000+0  95865-4 0  9991
2 51738  53.2135 277.1443 0001022  82.7896 277.3212 15.08844705 56599
STARLINK-3516           
1 51739U 22016AB  23050.62292892  .00002605  00000+0  18169-3 0  9996
2 51739  53.2125 280.3673 0001617  68.5155 291.6010 15.08847849 55372
STARLINK-3500           
1 51740U 22016AC  23050.67076909  .00002500  00000+0  17507-3 0  9991
2 51740  53.2153 280.1502 0001274  82.0268 278.0869 15.08845446 56440
STARLINK-3520           
1 51741U 22016AD  23051.34420454  .00002492  00000+0  17453-3 0  9995
2 51741  53.2132 277.1291 0000996  73.6884 286.4217 15.08857905 56598
STARLINK-3521           
1 51742U 22016AE  23050.99828779  .00001461  00000+0  10988-3 0  9999
2 51742  53.2161 278.6816 0001427 105.9737 254.1413 15.08844066 56567
STARLINK-3512           
1 51743U 22016AF  23051.29088018  .00012449  00000+0  79832-3 0  9999
2 51743  53.2160 267.3713 0001280  74.4822 285.6311 15.08865447 56742
STARLINK-3452           
1 51744U 22016AG  23051.32307982 -.00001672  00000+0 -86975-4 0  9993
2 51744  53.2145 277.2248 0001260  88.9974 271.1162 15.08842984 56548
STARLINK-3449           
1 51745U 22016AH  23050.67444760  .00003340  00000+0  22780-3 0  9992
2 51745  53.2139 280.1348 0000848  96.8081 263.3008 15.08848397 56517
STARLINK-3502           
1 51746U 22016AJ  23050.62384825  .00005175  00000+0  34294-3 0  9994
2 51746  53.2135 270.3593 0001340  82.7330 277.3815 15.08847995 55519
STARLINK-3446           
1 51747U 22016AK  23050.59717001  .00002784  00000+0  19290-3 0  9999
2 51747  53.2147 280.4813 0001214  96.6995 263.4135 15.08845437 56501
STARLINK-3501           
1 51748U 22016AL  23050.61648666  .00004085  00000+0  27453-3 0  9999
2 51748  53.2129 270.3933 0001242  76.3662 283.7468 15.08852443 55519
STARLINK-3451           
1 51749U 22016AM  23050.62756689  .00002711  00000+0  18830-3 0  9999
2 51749  53.2128 280.3390 0001555  92.7314 267.3856 15.08848847 56489
STARLINK-3505           
1 51750U 22016AN  23050.60914331  .00004202  00000+0  28197-3 0  9993
2 51750  53.2135 270.4268 0001062 109.8053 250.3053 15.08838434 55511
STARLINK-3506           
1 51751U 22016AP  23050.62016974  .00008479  00000+0  55000-3 0  9995
2 51751  53.2128 270.3766 0001432  90.0490 270.0666 15.08851485 55513
STARLINK-3511           
1 51752U 22016AQ  23050.87040412  .00004197  00000+0  28155-3 0  9991
2 51752  53.2130 269.2536 0001218  79.8390 280.2740 15.08850458 56667
STARLINK-3507           
1 51753U 22016AR  23050.61280212  .00001125  00000+0  88761-4 0  9996
2 51753  53.2135 270.4109 0001338  78.9716 281.1426 15.08842826 55512
STARLINK-3457           
1 51754U 22016AS  23051.32768051  .00000932  00000+0  76638-4 0  9993
2 51754  53.2130 267.2017 0001640  80.4866 279.6311 15.08846238 56731
STARLINK-3460           
1 51755U 22016AT  23051.33041971 -.00003412  00000+0 -19646-3 0  9993
2 51755  53.2150 267.1866 0002180  79.5059 280.6179 15.08824526 56738
STARLINK-3513           
1 51756U 22016AU  23051.30096253  .00002248  00000+0  15922-3 0  9991
2 51756  53.2139 267.3212 0001089  93.8950 266.2166 15.08849122 56699
STARLINK-3459           
1 51757U 22016AV  23051.08334491  .00032686  00000+0  20633-2 0  9999
2 51757  53.2120 268.3052 0001011  73.9357 198.2560 15.08822480 56700
STARLINK-3458           
1 51758U 22016AW  23050.95871640  .00002000  00000+0  14365-3 0  9990
2 51758  53.2144 268.8016 0001453  82.0620 278.0537 15.08849262 56715
STARLINK-3456           
1 51759U 22016AX  23051.29360140  .00003564  00000+0  24181-3 0  9990
2 51759  53.2124 267.3551 0000998  99.7431 260.3674 15.08850811 56752
STARLINK-3622           
1 51768U 22017A   23050.39661307  .00005247  00000+0  34738-3 0  9999
2 51768  53.2153 301.3807 0001385  94.7921 265.3229 15.08852614 55828
STARLINK-3621           
1 51769U 22017B   23050.98540412  .00005342  00000+0  35325-3 0  9997
2 51769  53.2156 298.7425 0001080 109.5130 250.5978 15.08861782 55920
STARLINK-3612           
1 51770U 22017C   23050.98908469  .00003187  00000+0  21815-3 0  9993
2 51770  53.2172 298.7201 0001292  94.8950 265.2190 15.08851902 55925
STARLINK-3614           
1 51771U 22017D   23050.98268234  .00005229  00000+0  34618-3 0  9997
2 51771  53.2157 298.7526 0001300 103.4417 256.6720 15.08860830 55927
STARLINK-3623           
1 51772U 22017E   23050.97436529  .00006589  00000+0  43145-3 0  9996
2 51772  53.2155 298.7831 0001581  71.8849 288.2315 15.08859398 55976
STARLINK-3624           
1 51773U 22017F   23051.37915717  .00006251  00000+0  41026-3 0  9995
2 51773  53.2171 296.9632 0001094  97.7758 262.3358 15.08860780 55998
STARLINK-3629           
1 51774U 22017G   23050.96700573  .00006046  00000+0  39736-3 0  9999
2 51774  53.2169 298.8158 0001292  93.4358 266.6782 15.08862436 55931
STARLINK-3620           
1 51775U 22017H   23051.37547664  .00018303  00000+0  11644-2 0  9992
2 51775  53.2143 296.9853 0000589  97.8983 262.2076 15.08861115 55981
STARLINK-3608           
1 51776U 22017J   23050.43339777  .00001566  00000+0  11640-3 0  9993
2 51776  53.2153 301.2184 0001214  86.4190 273.6941 15.08851336 54351
STARLINK-3625           
1 51777U 22017K   23051.00001157 -.00066601  00000+0 -42026-2 0  9990
2 51777  53.2144 298.6420 0001274  87.2762  87.0408 15.08866142 55946
STARLINK-3615           
1 51778U 22017L   23051.41667824  .00023973  00000+0  15197-2 0  9997
2 51778  53.2150 286.6705 0001222  98.2140 160.8682 15.08828043 56147
STARLINK-3611           
1 51779U 22017M   23050.95964853  .00005946  00000+0  39115-3 0  9995
2 51779  53.2151 298.8557 0001187 115.7328 244.3787 15.08857736 55922
STARLINK-3617           
1 51780U 22017N   23051.21723034  .00209109  00000+0  12948-1 0  9991
2 51780  53.2155 297.7220 0001275  76.7298 283.3836 15.08343672 56011
STARLINK-3580           
1 51781U 22017P   23050.95596850  .00002277  00000+0  16109-3 0  9998
2 51781  53.2157 298.8690 0001593  94.9206 265.1968 15.08848795 55931
STARLINK-3616           
1 51782U 22017Q   23050.97344249  .00021155  00000+0  13425-2 0  9997
2 51782  53.2181 308.7856 0001273  85.0065 275.1073 15.08861298 55787
STARLINK-3628           
1 51783U 22017R   23051.28414469 -.00088664  00000+0 -57247-2 0  9995
2 51783  53.2154 297.3992 0001424  90.0987 270.0168 15.08179866 55972
STARLINK-3632           
1 51784U 22017S   23050.96976481  .00002686  00000+0  18672-3 0  9995
2 51784  53.2152 308.8071 0001250  80.6367 279.4766 15.08854613 55798
STARLINK-3646           
1 51785U 22017T   23050.94860416  .00006022  00000+0  39592-3 0  9996
2 51785  53.2141 298.9065 0001409  76.1833 283.9316 15.08858528 55973
STARLINK-3638           
1 51786U 22017U   23050.96239816  .00005686  00000+0  37479-3 0  9990
2 51786  53.2172 308.8352 0000871  79.7662 280.3429 15.08865803 55834
STARLINK-3619           
1 51787U 22017V   23050.97712784  .00033254  00000+0  20965-2 0  9995
2 51787  53.2159 308.7762 0001589  68.7337 291.3825 15.08860287 55785
STARLINK-3641           
1 51788U 22017W   23051.15008286  .00015305  00000+0  97680-3 0  9998
2 51788  53.2150 308.0001 0001087  92.5681 267.5435 15.08870690 55811
STARLINK-3639           
1 51789U 22017X   23050.96608752  .00024582  00000+0  15562-2 0  9996
2 51789  53.2146 308.8250 0001262  72.2697 287.8433 15.08864337 55799
STARLINK-3631           
1 51790U 22017Y   23051.01392672  .00004034  00000+0  27129-3 0  9999
2 51790  53.2175 308.6114 0001237 114.8714 245.2407 15.08855974 55847
STARLINK-3602           
1 51791U 22017Z   23050.95872901  .00016841  00000+0  10732-2 0  9990
2 51791  53.2156 308.8590 0001196  91.7228 268.3901 15.08856803 55784
STARLINK-3626           
1 51792U 22017AA  23051.00656081  .00024090  00000+0  15257-2 0  9999
2 51792  53.2162 308.6454 0000886  71.7361 288.3727 15.08859619 55843
STARLINK-3633           
1 51793U 22017AB  23051.02128985  .00002307  00000+0  16300-3 0  9997
2 51793  53.2143 308.5795 0001314  89.5981 270.5162 15.08843378 55843
STARLINK-3573           
1 51794U 22017AC  23050.73425746  .00015853  00000+0  10109-2 0  9990
2 51794  53.2166 309.8614 0001354  73.5346 286.5795 15.08875336 55753
